GLOBALSTAR M094         
1 39074U 13005C   24211.34346084 -.00000102  00000+0  10433-4 0  9992
2 39074  51.9961  85.0810 0000522  43.7452 316.3456 12.62266257531604
GLOBALSTAR M096         
1 39075U 13005D   24211.51509920 -.00000089  00000+0  81732-4 0  9996
2 39075  52.0069 132.8215 0000314 358.1599   1.9266 12.62267981530891
GLOBALSTAR M078         
1 39076U 13005E   24211.48874982 -.00000081  00000+0  12671-3 0  9993
2 39076  51.9843 217.8513 0001021 173.6879 186.4000 12.62273529529160
GLOBALSTAR M095         
1 39077U 13005F   24211.51492771 -.00000084  00000+0  10859-3 0  9999
2 39077  51.9770 215.1269 0000601 215.5439 144.5387 12.62262765529387
GLOBALSTAR M087         
1 52888U 22064A   24211.55129803 -.00000102  00000+0  50495-4 0  9998
2 52888  51.9763  60.6589 0010070 109.5594 250.6394 13.37579674103194
